COMMENT,ORIGINATOR,NORAD_CAT_ID,OBJECT_NAME,OBJECT_TYPE,CLASSIFICATION_TYPE,INTLDES,EPOCH,EPOCH_MICROSECONDS,MEAN_MOTION,ECCENTRICITY,INCLINATION,RA_OF_ASC_NODE,ARG_OF_PERICENTER,MEAN_ANOMALY,EPHEMERIS_TYPE,ELEMENT_SET_NO,REV_AT_EPOCH,BSTAR,MEAN_MOTION_DOT,MEAN_MOTION_DDOT,FILE,TLE_LINE0,TLE_LINE1,TLE_LINE2,OBJECT_ID,OBJECT_NUMBER,SEMIMAJOR_AXIS,PERIOD,APOGEE,PERIGEE,DECAYED,date
GENERATED VIA SPACETRACK.ORG API,18 SPCS,48893,SPACEBEE-106,PAYLOAD,U,21059Q,2023/4/22 14:33,980928,15.27941613,0.0007645,97.5897,248.4609,116.6689,243.5334,0,999,10089,0.0013697,0.0003745,0,3892285,0 SPACEBEE-106,1 48893U 21059Q   23112.60636552  .00037450  00000-0  13697-2 0  9998,2 48893  97.5897 248.4609 0007645 116.6689 243.5334 15.27941613100892,2021-059Q,48893,6860.104,94.244,487.213,476.724,0,
GENERATED VIA SPACETRACK.ORG API,18 SPCS,48893,SPACEBEE-106,PAYLOAD,U,21059Q,2023/4/23 7:50,196032,15.27989854,0.0007604,97.5897,249.1943,114.1224,246.0811,0,999,10100,0.0012112,0.00033136,0,3892688,0 SPACEBEE-106,1 48893U 21059Q   23113.32673838  .00033136  00000-0  12112-2 0  9994,2 48893  97.5897 249.1943 0007604 114.1224 246.0811 15.27989854101005,2021-059Q,48893,6859.959,94.241,487.04,476.608,0,
GENERATED VIA SPACETRACK.ORG API,18 SPCS,48893,SPACEBEE-106,PAYLOAD,U,21059Q,2023/4/23 7:50,196032,15.27989854,0.0007604,97.5897,249.1943,114.1224,246.0811,0,999,10100,0.0012112,0.00033136,0,3892915,0 SPACEBEE-106,1 48893U 21059Q   23113.32673838  .00033136  00000-0  12112-2 0  9994,2 48893  97.5897 249.1943 0007604 114.1224 246.0811 15.27989854101005,2021-059Q,48893,6859.959,94.241,487.04,476.608,0,
GENERATED VIA SPACETRACK.ORG API,18 SPCS,48893,SPACEBEE-106,PAYLOAD,U,21059Q,2023/4/24 8:59,673856,15.28158669,0.0007647,97.5901,250.2606,109.971,250.2353,0,999,10116,0.0045281,0.00126283,0,3893164,0 SPACEBEE-106,1 48893U 21059Q   23114.37449854  .00126283  00000-0  45281-2 0  9998,2 48893  97.5901 250.2606 0007647 109.9710 250.2353 15.28158669101167,2021-059Q,48893,6859.454,94.231,486.564,476.073,0,
GENERATED VIA SPACETRACK.ORG API,18 SPCS,48893,SPACEBEE-106,PAYLOAD,U,21059Q,2023/4/24 8:59,673856,15.28158669,0.0007647,97.5901,250.2606,109.971,250.2353,0,999,10116,0.0045281,0.00126283,0,3893330,0 SPACEBEE-106,1 48893U 21059Q   23114.37449854  .00126283  00000-0  45281-2 0  9998,2 48893  97.5901 250.2606 0007647 109.9710 250.2353 15.28158669101167,2021-059Q,48893,6859.454,94.231,486.564,476.073,0,
GENERATED VIA SPACETRACK.ORG API,18 SPCS,48893,SPACEBEE-106,PAYLOAD,U,21059Q,2023/4/24 23:07,859296,15.28164273,0.0007634,97.5901,250.8612,108.3984,251.8085,0,999,10125,0.0015863,0.00043715,0,3893702,0 SPACEBEE-106,1 48893U 21059Q   23114.96382939  .00043715  00000-0  15863-2 0  9994,2 48893  97.5901 250.8612 0007634 108.3984 251.8085 15.28164273101259,2021-059Q,48893,6859.437,94.231,486.539,476.066,0,
GENERATED VIA SPACETRACK.ORG API,18 SPCS,48893,SPACEBEE-106,PAYLOAD,U,21059Q,2023/4/25 8:33,362976,15.2819011,0.0007628,97.5899,251.2614,107.1316,253.0759,0,999,10131,0.0012345,0.00033986,0,3894092,0 SPACEBEE-106,1 48893U 21059Q   23115.35670559  .00033986  00000-0  12345-2 0  9997,2 48893  97.5899 251.2614 0007628 107.1316 253.0759 15.28190110101319,2021-059Q,48893,6859.36,94.229,486.457,475.992,0,
GENERATED VIA SPACETRACK.ORG API,18 SPCS,48893,SPACEBEE-106,PAYLOAD,U,21059Q,2023/4/26 14:25,420512,15.28251871,0.0007564,97.59,252.5288,103.4603,256.7479,0,999,10150,0.0010207,0.00028117,0,3894260,0 SPACEBEE-106,1 48893U 21059Q   23116.60078033  .00028117  00000-0  10207-2 0  9990,2 48893  97.5900 252.5288 0007564 103.4603 256.7479 15.28251871101502,2021-059Q,48893,6859.175,94.225,486.228,475.852,0,
GENERATED VIA SPACETRACK.ORG API,18 SPCS,48893,SPACEBEE-106,PAYLOAD,U,21059Q,2023/4/27 7:42,88608,15.28296285,0.0007426,97.59,253.2628,100.7208,259.4868,0,999,10161,0.0011058,0.00030518,0,3894751,0 SPACEBEE-106,1 48893U 21059Q   23117.32100797  .00030518  00000-0  11058-2 0  9996,2 48893  97.5900 253.2628 0007426 100.7208 259.4868 15.28296285101618,2021-059Q,48893,6859.042,94.223,486.001,475.814,0,
GENERATED VIA SPACETRACK.ORG API,18 SPCS,48893,SPACEBEE-106,PAYLOAD,U,21059Q,2023/4/28 2:33,635840,15.28348821,0.0007477,97.5899,254.0635,98.237,261.9718,0,999,10173,0.0012098,0.00033462,0,3895179,0 SPACEBEE-106,1 48893U 21059Q   23118.10668560  .00033462  00000-0  12098-2 0  9996,2 48893  97.5899 254.0635 0007477  98.2370 261.9718 15.28348821101738,2021-059Q,48893,6858.885,94.219,485.878,475.622,0,
GENERATED VIA SPACETRACK.ORG API,18 SPCS,48893,SPACEBEE-106,PAYLOAD,U,21059Q,2023/4/28 8:50,644128,15.28363091,0.0007446,97.5899,254.3304,97.2735,262.9351,0,999,10177,0.0010287,0.00028435,0,3895770,0 SPACEBEE-106,1 48893U 21059Q   23118.36857227  .00028435  00000-0  10287-2 0  9996,2 48893  97.5899 254.3304 0007446  97.2735 262.9351 15.28363091101778,2021-059Q,48893,6858.842,94.218,485.814,475.6,0,
GENERATED VIA SPACETRACK.ORG API,18 SPCS,48893,SPACEBEE-106,PAYLOAD,U,21059Q,2023/4/29 8:24,797824,15.28425384,0.0007403,97.5898,255.3309,94.1266,266.082,0,999,10192,0.0010754,0.00029791,0,3896410,0 SPACEBEE-106,1 48893U 21059Q   23119.35062266  .00029791  00000-0  10754-2 0  9992,2 48893  97.5898 255.3309 0007403  94.1266 266.0820 15.28425384101928,2021-059Q,48893,6858.656,94.215,485.598,475.443,0,
GENERATED VIA SPACETRACK.ORG API,18 SPCS,48893,SPACEBEE-106,PAYLOAD,U,21059Q,2023/4/29 8:24,797824,15.28425384,0.0007403,97.5898,255.3309,94.1266,266.082,0,999,10192,0.0010754,0.00029791,0,3896517,0 SPACEBEE-106,1 48893U 21059Q   23119.35062266  .00029791  00000-0  10754-2 0  9992,2 48893  97.5898 255.3309 0007403  94.1266 266.0820 15.28425384101928,2021-059Q,48893,6858.656,94.215,485.598,475.443,0,
GENERATED VIA SPACETRACK.ORG API,18 SPCS,48893,SPACEBEE-106,PAYLOAD,U,21059Q,2023/4/30 14:16,403424,15.28504683,0.0007314,97.5898,256.5986,89.8039,270.4038,0,999,10211,0.0010828,0.0003007,0,3897236,0 SPACEBEE-106,1 48893U 21059Q   23120.59449541  .00030070  00000-0  10828-2 0  9999,2 48893  97.5898 256.5986 0007314  89.8039 270.4038 15.28504683102114,2021-059Q,48893,6858.419,94.21,485.3,475.267,0,
